<?xml version="1.0" encoding="UTF-8"?>
<kml xmlns="http://www.opengis.net/kml/2.2" xmlns:gx="http://www.google.com/kml/ext/2.2" xmlns:kml="http://www.opengis.net/kml/2.2" xmlns:atom="http://www.w3.org/2005/Atom">
<Document id="1J3PBpo6hKgBUjUamREdci6Pxv7Kdx882">
	<name>Untitled map</name>
	<gx:CascadingStyle kml:id="__managed_style_226899CCC93D72949A99">
		<Style>
			<IconStyle>
				<scale>1.2</scale>
				<Icon>
					<href>https://earth.google.com/earth/document/icon?color=1976d2&amp;id=2000&amp;scale=4</href>
				</Icon>
				<hotSpot x="64" y="128" xunits="pixels" yunits="insetPixels"/>
			</IconStyle>
			<LabelStyle>
			</LabelStyle>
			<LineStyle>
				<color>ff2dc0fb</color>
				<width>6</width>
			</LineStyle>
			<PolyStyle>
				<color>40ffffff</color>
			</PolyStyle>
			<BalloonStyle>
			</BalloonStyle>
		</Style>
	</gx:CascadingStyle>
	<gx:CascadingStyle kml:id="__managed_style_165FC308C33D72949A99">
		<Style>
			<IconStyle>
				<Icon>
					<href>https://earth.google.com/earth/document/icon?color=1976d2&amp;id=2000&amp;scale=4</href>
				</Icon>
				<hotSpot x="64" y="128" xunits="pixels" yunits="insetPixels"/>
			</IconStyle>
			<LabelStyle>
			</LabelStyle>
			<LineStyle>
				<color>ff2dc0fb</color>
				<width>4</width>
			</LineStyle>
			<PolyStyle>
				<color>40ffffff</color>
			</PolyStyle>
			<BalloonStyle>
			</BalloonStyle>
		</Style>
	</gx:CascadingStyle>
	<StyleMap id="__managed_style_03B2B2285F3D72949A99">
		<Pair>
			<key>normal</key>
			<styleUrl>#__managed_style_165FC308C33D72949A99</styleUrl>
		</Pair>
		<Pair>
			<key>highlight</key>
			<styleUrl>#__managed_style_226899CCC93D72949A99</styleUrl>
		</Pair>
	</StyleMap>
	<Placemark id="0AFC771F523D72949A90">
		<name>Tram 1</name>
		<LookAt>
			<longitude>35.01711313757632</longitude>
			<latitude>48.47531987461579</latitude>
			<altitude>60.31315940671139</altitude>
			<heading>45.39997576487824</heading>
			<tilt>22.62513351692094</tilt>
			<gx:fovy>35</gx:fovy>
			<range>829.0462266482064</range>
			<altitudeMode>absolute</altitudeMode>
		</LookAt>
		<styleUrl>#__managed_style_03B2B2285F3D72949A99</styleUrl>
		<Polygon>
			<outerBoundaryIs>
				<LinearRing>
					<coordinates>
						35.01858134246388,48.47497093361444,0 35.01686845104058,48.47527419884684,0 35.01675090879764,48.47530790844782,0 35.01660006058718,48.47534766256796,0 35.01648161065894,48.47540109625531,0 35.01636989712937,48.47550759574112,0 35.01626600339919,48.47564148405927,0 35.01602953819353,48.47634195415549,0 35.0160044077011,48.47638688951348,0 35.01596692507189,48.47641805016973,0 35.01589468386727,48.47644810253767,0 35.01583079743133,48.47647651716989,0 35.01571018653138,48.47650598209071,0 35.01557694656574,48.47651499640006,0 35.01546273066138,48.47649655357976,0 35.01539118753276,48.47645282075602,0 35.01532592395244,48.47640654440977,0 35.01529313149062,48.47636211310648,0 35.01527386584376,48.47631026145891,0 35.01527076311139,48.47624927360214,0 35.01527179815875,48.47617636909625,0 35.0153901567427,48.47592347620387,0 35.01558250475553,48.47549003414987,0 35.01565460844902,48.47541890022963,0 35.01575743085379,48.47535223323627,0 35.01594321027684,48.47529446115392,0 35.01611887654645,48.47525680747852,0 35.01852347564239,48.47481989953832,0 35.02640922354389,48.47347084387884,0 35.02805606141125,48.47317726574673,0 35.03047314125115,48.47258347658672,0 35.03253978085284,48.47145252700435,0 35.03445892641913,48.47085242484319,0 35.03583694620373,48.47011621404276,0 35.03610953461547,48.46975079825165,0 35.03963487386573,48.4678136917077,0 35.0402392122367,48.46759129917949,0 35.04388259236859,48.46563844386547,0 35.04401960848708,48.46556249982908,0 35.04417578953945,48.46549424707587,0 35.04428698651441,48.46546782325144,0 35.04434681572472,48.46545480278576,0 35.04440115509165,48.46545494681517,0 35.04446302148757,48.46546088477204,0 35.04450832745283,48.46547135137727,0 35.04456371758893,48.46548913340708,0 35.04461782047326,48.46550011575785,0 35.04466051423755,48.46552274608329,0 35.04473033305779,48.46555918759532,0 35.04476221865068,48.46558825225836,0 35.0448344833065,48.46564433855402,0 35.04493039540532,48.46571737712306,0 35.0450468979118,48.46578803511265,0 35.04515431843178,48.46580283824002,0 35.04524617626441,48.46582280688327,0 35.04533261836345,48.46580796997784,0 35.04545607970299,48.46575924125403,0 35.0465608316667,48.46518121545682,0 35.04698487331112,48.46505733092062,0 35.04814062540359,48.46443979022557,0 35.0481973213838,48.46439571120358,0 35.04822585803095,48.4643491914216,0 35.04825671885914,48.46430414455298,0 35.04824395234812,48.46424547795995,0 35.04824204214734,48.46418359537574,0 35.04820818092781,48.46415216671458,0 35.04814627434668,48.46408189472589,0 35.04809379381781,48.46403438110032,0 35.04801826979049,48.46395619864607,0 35.04796402250968,48.46390357876855,0 35.04790253630566,48.46383344130656,0 35.04786066754485,48.46379150941645,0 35.04782618714044,48.46370029800931,0 35.04782369037637,48.46365641038003,0 35.04782401664524,48.46360011343798,0 35.04784428031936,48.4635409758567,0 35.04792304700084,48.46348466942065,0 35.04932692141895,48.46273985444711,0 35.05504007300365,48.4597224205688,0 35.06116962173761,48.45648205153382,0 35.06131924231853,48.456400441649,0 35.06142437988093,48.4563579377479,0 35.06151807677792,48.45635239591463,0 35.06162212953123,48.45635177056852,0 35.06175054790042,48.45638745873239,0 35.06186029010885,48.45643534283334,0 35.0619614759876,48.45648198702352,0 35.0620316722353,48.4565449633515,0 35.06537132050149,48.45930640196271,0 35.06547013886648,48.45939189071849,0 35.06554374372934,48.45943887883195,0 35.06558574511463,48.45946999363733,0 35.06565657805013,48.45948450853355,0 35.06578002720559,48.45949269922706,0 35.06598528839905,48.4594993529939,0 35.0660637017521,48.45947682000323,0 35.06619293496139,48.45942352605682,0 35.06629881023976,48.45937044786773,0 35.06693451237297,48.45903229402214,0 35.06784935749755,48.45852359828056,0 35.06797386637825,48.45842672048085,0 35.06808357068,48.45833188164037,0 35.06816694405634,48.45821484229638,0 35.06826150806656,48.45805852728726,0 35.06840704103796,48.45776525977406,0 35.06818292708668,48.45726279848232,0 35.06730917975995,48.45645857142361,0 35.06630024427799,48.45555661271977,0 35.06329995051751,48.45290483305051,0 35.05955905008079,48.44972350855699,0 35.05951812328256,48.44964477589959,0 35.05952821166303,48.44959881403212,0 35.05958385932643,48.44953237019951,0 35.05960172642345,48.4494980399507,0 35.05970468459068,48.44943769496791,0 35.0598038016037,48.44937430996024,0 35.06060848040729,48.44892415341123,0 35.06073442901273,48.44881055720882,0 35.06073226667323,48.44878934622547,0 35.06072845287041,48.4487500405558,0 35.0607076171523,48.44869386522146,0 35.06068088865934,48.44862649696324,0 35.06059737468385,48.4485258892754,0 35.06026484947656,48.44819833224769,0 35.05695696875852,48.44537770805778,0 35.05473091260976,48.44365190654532,0 35.05109055191122,48.44077075314164,0 35.05071210641198,48.4403876165048,0 35.04961670608132,48.43915886443868,0 35.04927760903156,48.43880260329015,0 35.04916112085459,48.43867239694315,0 35.04907310894951,48.43852114368647,0 35.04917069133752,48.43843768718506,0 35.04935660355011,48.43833842364439,0 35.04949787843222,48.43828557269633,0 35.04965678185556,48.43828416980471,0 35.04981941571636,48.43831591782624,0 35.04999953429327,48.43839075737302,0 35.0500912799214,48.43848145181491,0 35.05022726025855,48.43859691501405,0 35.05028788025388,48.43877106957362,0 35.05027570796049,48.43881991258698,0 35.05022988903323,48.43889733456136,0 35.05014638990334,48.43897820428465,0 35.05008425083833,48.43902383849576,0 35.04996078615176,48.43910788626641,0 35.04987770645973,48.43920398376626,0 35.0498684080842,48.43928874790979,0 35.04987396300248,48.43936024555155,0 35.04994448286689,48.43946777234473,0 35.05012705320512,48.43969174074324,0 35.05113016827389,48.44076607251629,0 35.05698148226384,48.44536671438081,0 35.06001787244126,48.44790371830285,0 35.0606863608543,48.44854330467008,0 35.06077592258377,48.44864716546206,0 35.06080940933822,48.44870925558013,0 35.06081503706459,48.4487736104937,0 35.0607668625865,48.44885148791881,0 35.06073048696331,48.44890665021749,0 35.06067549038592,48.44894541541379,0 35.0605858495253,48.44900086253809,0 35.06050895512384,48.44904333840404,0 35.05982194283182,48.44940283372087,0 35.0597154221064,48.449471768277,0 35.0596271825958,48.44953251408178,0 35.05955810783487,48.44958755465611,0 35.0595379255546,48.4496305718972,0 35.05957797129523,48.44971183744927,0 35.06455412192394,48.45396775185533,0 35.06781984651369,48.45686558846334,0 35.06819955280332,48.45720500550952,0 35.06830446218476,48.45736231067809,0 35.06841079846809,48.45762667920397,0 35.06843376341764,48.45779052718662,0 35.06824848138429,48.45823191546025,0 35.06805394782749,48.45843384385596,0 35.06789263840497,48.45855475011897,0 35.06666093384606,48.45922212521633,0 35.06618116701402,48.45947388315326,0 35.06604469457517,48.45953919090032,0 35.0658272459004,48.45957040361867,0 35.06556673456828,48.45953126956362,0 35.06539557460755,48.45944134744463,0 35.06484171761174,48.45895812649702,0 35.0619833222039,48.45657780877291,0 35.06187328433488,48.45649765538705,0 35.06180782625324,48.45645719813464,0 35.06168905312767,48.45640521219545,0 35.06159682638603,48.4563877729069,0 35.06149563174714,48.45639331956612,0 35.06141005790393,48.45640913409925,0 35.06123751780696,48.45648128840936,0 35.06048599877517,48.45688784642761,0 35.05506004550475,48.4597679018433,0 35.04974277663206,48.46258198596085,0 35.04796264630855,48.46355464012174,0 35.04788748111214,48.46363929087487,0 35.04788498919302,48.46374943277564,0 35.04793513238409,48.46383490167908,0 35.04830747476234,48.46417366784443,0 35.0483333248841,48.46426631719977,0 35.04835007903321,48.46430926326364,0 35.04834236446527,48.46435963025458,0 35.0483227213016,48.46438662807086,0 35.04826847717446,48.46446612531756,0 35.04813332938542,48.46454590321875,0 35.04699851751037,48.46513424371485,0 35.04629258606521,48.46538050225569,0 35.04552138294633,48.46578986629101,0 35.04544672054063,48.46581817615814,0 35.0453615133553,48.46583757729268,0 35.04528532517548,48.46585124326093,0 35.04520366492915,48.46585487834331,0 35.04512675941351,48.4658430775891,0 35.04504804656676,48.46582502321232,0 35.04493209220644,48.46577233671047,0 35.04485148348698,48.46571504092331,0 35.0447898930604,48.46565338593059,0 35.04467784590649,48.46557954725884,0 35.04458265036646,48.46552503392266,0 35.04447614175933,48.46550091655878,0 35.04440212435014,48.46548732833845,0 35.04434812154943,48.46548698075485,0 35.04428896722781,48.46549717383066,0 35.04421201796071,48.46551533904493,0 35.04415097040138,48.46553233249134,0 35.04401533892266,48.46559467836526,0 35.0437821175273,48.46572455756751,0 35.04171150220783,48.46684418262124,0 35.04023484425223,48.46762595748899,0 35.03966990311064,48.467835399638,0 35.03616919451637,48.4697683607403,0 35.03587193623434,48.47014366226247,0 35.03443919883804,48.47089066308059,0 35.03244786501528,48.47152690305354,0 35.03089999695008,48.47237340940124,0 35.03047961493039,48.47279936993577,0 35.02765521507825,48.47338754640645,0 35.02419756298536,48.47400278133095,0 35.02192165909088,48.47439315656838,0 35.01858134246388,48.47497093361444,0 
					</coordinates>
				</LinearRing>
			</outerBoundaryIs>
		</Polygon>
	</Placemark>
</Document>
</kml>
